{"places_data":[{"id":"1","place_name":"Manali","place_region_name":"Himachal Pardesh","place_region_id":"1"},{"id":"2","place_name":"Kasol-manikaran","place_region_name":"Himachal Pardesh","place_region_id":"1"},{"id":"3","place_name":"Shimla","place_region_name":"Himachal Pardesh","place_region_id":"1"},{"id":"4","place_name":"Darjeeling","place_region_name":"North East","place_region_id":"2"},{"id":"5","place_name":"Gangtok ","place_region_name":"North East","place_region_id":"2"},{"id":"6","place_name":"Dalhousie-khajjiar","place_region_name":"Himachal Pardesh","place_region_id":"1"},{"id":"7","place_name":"Tawang","place_region_name":"North East","place_region_id":"2"},{"id":"8","place_name":"Shillong- cherrapunjee","place_region_name":"North East","place_region_id":"2"},{"id":"9","place_name":"Guwahati","place_region_name":"North East","place_region_id":"2"},{"id":"10","place_name":"Jaipur","place_region_name":"Rajasthan","place_region_id":"3"},{"id":"11","place_name":"Udaipur","place_region_name":"Rajasthan","place_region_id":"3"},{"id":"12","place_name":"Mount_Abu","place_region_name":"Rajasthan","place_region_id":"3"},{"id":"13","place_name":"Jaisalmer","place_region_name":"Rajasthan","place_region_id":"3"},{"id":"14","place_name":"Rishikesh","place_region_name":"Uttrakhand","place_region_id":"4"},{"id":"15","place_name":"Nainital","place_region_name":"Uttrakhand","place_region_id":"4"},{"id":"16","place_name":"Mussoorie","place_region_name":"Uttrakhand","place_region_id":"4"},{"id":"17","place_name":"Agra","place_region_name":"Others","place_region_id":"5"},{"id":"18","place_name":"Amritsar","place_region_name":"Others","place_region_id":"5"},{"id":"19","place_name":"Chandigarh","place_region_name":"Others","place_region_id":"5"},{"id":"20","place_name":"Khajuraho","place_region_name":"Others","place_region_id":"5"},{"id":"21","place_name":"Pachmarhi","place_region_name":"Others","place_region_id":"5"},{"id":"22","place_name":"Chamba","place_region_name":"Himachal Pardesh","place_region_id":"1"},{"id":"23","place_name":"Dharamshala-McloedGunj","place_region_name":"Himachal Pardesh","place_region_id":"1"}]}